[{"OBJECT_NAME":"CUBESX-HSE 3 (RS42S)","OBJECT_ID":"2023-091N","EPOCH":"2026-03-09T22:57:25.321248","MEAN_MOTION":15.286147,"ECCENTRICITY":0.00127191,"INCLINATION":97.5203,"RA_OF_ASC_NODE":133.4295,"ARG_OF_PERICENTER":86.5376,"MEAN_ANOMALY":273.7318,"EPHEMERIS_TYPE":0,"CLASSIFICATION_TYPE":"U","NORAD_CAT_ID":57178,"ELEMENT_SET_NO":999,"REV_AT_EPOCH":14925,"BSTAR":0.00059055694,"MEAN_MOTION_DOT":0.00016417,"MEAN_MOTION_DDOT":0},{"OBJECT_NAME":"STARLINK-30528","OBJECT_ID":"2023-151D","EPOCH":"2026-03-09T01:41:03.497568","MEAN_MOTION":15.27575133,"ECCENTRICITY":0.00013391,"INCLINATION":43.0001,"RA_OF_ASC_NODE":339.3327,"ARG_OF_PERICENTER":277.3865,"MEAN_ANOMALY":82.6834,"EPHEMERIS_TYPE":0,"CLASSIFICATION_TYPE":"U","NORAD_CAT_ID":57967,"ELEMENT_SET_NO":999,"REV_AT_EPOCH":13567,"BSTAR":-5.9647529e-5,"MEAN_MOTION_DOT":-1.903e-5,"MEAN_MOTION_DDOT":0}]
